OBJECT_NAME,OBJECT_ID,EPOCH,MEAN_MOTION,ECCENTRICITY,INCLINATION,RA_OF_ASC_NODE,ARG_OF_PERICENTER,MEAN_ANOMALY,EPHEMERIS_TYPE,CLASSIFICATION_TYPE,NORAD_CAT_ID,ELEMENT_SET_NO,REV_AT_EPOCH,BSTAR,MEAN_MOTION_DOT,MEAN_MOTION_DDOT
ARIANE 2 DEB,1988-098H,2024-01-20T13:38:27.467808,2.00997243,.7261985,3.2407,212.0129,116.9813,275.8290,0,U,27625,999,15721,.25486E-1,.352E-5,0
NIMIQ 2,2002-062A,2024-01-20T11:03:01.830240,1.00268876,.000546,7.3781,65.6145,223.8991,246.3425,0,U,27632,999,3537,0,-.69E-6,0
ARIANE 3 DEB,1984-081F,2024-01-20T06:26:37.722624,2.10312403,.7193252,5.5262,326.1432,0.1840,359.8071,0,U,27648,999,18797,-.21774E-1,-.471E-5,0
ARIANE 2 DEB,1989-006AD,2024-01-19T10:54:26.683200,2.22879004,.6987358,7.6649,143.5052,327.0056,277.6092,0,U,27649,999,18161,0,-.182E-5,0
USA 167,2003-008A,2024-01-20T14:07:07.815360,1.00275862,.0002803,9.1979,50.6270,237.1426,273.4170,0,U,27691,999,2281,0,.48E-6,0
IABS R/B,2003-008C,2024-01-19T10:29:39.419520,1.01124161,.0022408,12.8780,16.6844,211.1155,148.7723,0,U,27693,999,1772,0,-.35E-5,0
USA 169 (MILSTAR-2 4),2003-012A,2024-01-20T10:40:05.211264,1.00270228,.0097993,11.0024,36.4136,356.7580,38.2622,0,U,27711,999,2414,0,-.2E-5,0
TITAN 4 CENTAUR R/B,2003-012B,2024-01-19T15:54:36.468576,1.00585803,.0022261,10.0876,28.0901,258.6320,101.1458,0,U,27712,999,1694,0,.13E-5,0
INSAT-3A,2003-013A,2024-01-20T09:20:46.845312,0.99811175,.0009795,6.6942,70.2215,281.2615,268.4214,0,U,27714,999,7595,0,-.88E-6,0
ARIANE 5 R/B,2003-013C,2024-01-20T13:28:23.926656,2.24037195,.7075281,0.9772,152.8382,167.0047,59.9889,0,U,27716,999,17013,.32851E-2,-.148E-5,0
ARIANE 5 DEB [SYLDA],2003-013D,2024-01-20T14:52:27.490368,2.22497288,.7102854,1.1266,184.1988,111.8174,354.1878,0,U,27717,999,16896,.3472E-2,-.13E-5,0
ASIASAT 4,2003-014A,2024-01-20T18:38:31.856640,1.00270777,.0003044,2.4454,86.8295,217.2925,242.7009,0,U,27718,999,7611,0,-.22E-5,0
ARIANE 1 DEB,1979-104S,2024-01-18T20:21:27.884160,1.93195388,.7322381,15.6943,254.1125,83.7290,347.3777,0,U,27732,999,6902,.67982E-2,-.135E-5,0
COSMOS 2397,2003-015A,2024-01-20T02:39:57.242880,1.00480500,.0041242,11.7164,26.0703,348.8386,185.3563,0,U,27775,999,7608,0,.105E-5,0
SL-12 R/B(2),2003-015F,2024-01-20T01:03:42.831072,1.00164427,.0010996,11.7486,26.3916,28.3081,145.1737,0,U,27780,999,7568,0,.3E-7,0
ATLAS AGENA R/B,1968-063B,2024-01-19T19:43:21.956160,1.01775002,.1056342,6.6338,280.9768,233.9416,116.0035,0,U,27785,999,1743,0,-.26E-6,0
ATLAS AGENA R/B,1969-036B,2024-01-19T22:51:31.957344,1.03855086,.1071826,13.1289,35.3692,224.7487,126.0809,0,U,27786,999,1768,0,-.222E-5,0
ATLAS AGENA R/B,1970-069B,2024-01-20T05:27:02.124288,1.01705779,.1288882,10.4985,159.8888,150.3685,217.4533,0,U,27787,999,1807,0,-.119E-5,0
COSMOS 1261 DEB,1981-031H,2024-01-19T03:09:45.147456,2.01767623,.6949463,65.1992,89.1142,28.4797,356.2728,0,U,27796,999,16811,0,-.1244E-4,0
COSMOS 1285 DEB,1981-071P,2024-01-20T15:47:14.626752,1.97654066,.6847542,64.4892,164.8336,39.5446,354.0713,0,U,27800,999,17600,0,-.469E-5,0
COSMOS 1285 DEB,1981-071Q,2024-01-18T01:26:56.667840,1.97983625,.7016239,64.2380,145.5953,40.3485,1.3869,0,U,27801,999,16612,0,.66E-6,0
GSAT-2,2003-018A,2024-01-20T12:55:55.077888,0.99855098,.0009641,9.4530,48.6788,320.6921,135.3962,0,U,27807,999,7566,0,.39E-6,0
HELLAS-SAT 2,2003-020A,2024-01-19T22:59:01.539744,1.00270834,.0008212,5.1452,78.2114,210.0004,165.3326,0,U,27811,999,7552,0,-.83E-6,0
BEIDOU-1 G3,2003-021A,2024-01-20T06:03:54.861120,0.99773065,.0013669,9.6638,48.2773,278.7784,276.5327,0,U,27813,999,7553,0,.101E-5,0
THURAYA-2,2003-026A,2024-01-20T16:25:41.963808,1.00272321,.0002888,7.5079,34.3997,256.8581,118.7079,0,U,27825,999,7553,0,.125E-5,0
BLOCK DM-SL R/B,2003-026B,2024-01-20T10:05:35.570976,2.22045716,.6979363,6.4318,3.3475,101.7610,10.6506,0,U,27826,999,16726,0,-.214E-5,0
OPTUS C1,2003-028B,2024-01-20T15:10:04.713600,1.00269885,.0006153,4.6690,79.9095,218.8886,203.8782,0,U,27831,999,4425,0,-.152E-5,0
ARIANE 5 R/B,2003-028C,2024-01-20T14:26:47.630688,2.24789771,.7185579,7.0706,88.0392,11.7305,358.7205,0,U,27832,999,16930,.65843E-3,-.113E-5,0
ARIANE 5 DEB [SYLDA],2003-028D,2024-01-19T18:50:10.220928,2.26244087,.7159014,6.8685,83.4157,23.9866,357.1946,0,U,27833,999,17016,.23184E-2,-.26E-6,0
GALAXY 23 (G-23),2003-034A,2024-01-20T14:19:40.671264,1.00272866,.0002667,0.9204,91.1576,214.5075,267.8301,0,U,27854,999,7493,0,.16E-6,0
BLOCK DM-SL R/B,2003-034B,2024-01-20T13:05:03.378336,2.24664726,.7153979,0.7471,326.5479,308.5373,353.3073,0,U,27855,999,16794,.71738E-3,-.108E-5,0
USA 170,2003-040A,2024-01-16T19:53:42.745344,1.00478714,.00029,8.6090,55.6566,196.7275,176.9399,0,U,27875,999,2412,0,.112E-5,0
IABS R/B,2003-040C,2024-01-20T00:45:49.237632,1.00747831,.0010147,12.7032,18.6865,294.1601,65.7548,0,U,27877,999,1709,0,-.14E-5,0
COSMOS 917 DEB,1977-047F,2024-01-20T03:27:53.022816,2.02083700,.7211603,63.4097,359.0668,36.9272,355.5965,0,U,27883,999,15763,0,.985E-5,0
COSMOS 917 DEB,1977-047G,2024-01-20T12:07:30.035136,2.01667312,.7311269,62.8459,355.4706,43.5092,354.9937,0,U,27884,999,15615,.66115E-2,.892E-5,0
COSMOS 917 DEB,1977-047K,2024-01-20T14:56:24.105408,1.97918382,.6210951,65.4346,310.4640,13.9678,141.7750,0,U,27887,999,17990,0,.378E-5,0
COSMOS 917 DEB,1977-047L,2024-01-20T11:45:04.297248,2.02005531,.7209756,63.4765,4.0874,37.5341,355.5400,0,U,27888,999,20045,0,-.193E-5,0
COSMOS 1030 DEB,1978-083K,2024-01-10T06:24:23.262624,2.00388162,.5954484,69.5644,94.8407,13.4455,357.3028,0,U,27892,999,15684,0,.74E-6,0
COSMOS 1191 DEB,1980-057K,2024-01-20T06:32:47.409216,1.99163832,.7146245,63.7224,112.7701,42.7631,354.5277,0,U,27897,999,15247,0,.173E-5,0
COSMOS 1191 DEB,1980-057L,2024-01-16T02:48:42.694848,1.99717425,.6811561,64.7060,149.6125,36.5852,354.4582,0,U,27898,999,2531,0,-.128E-5,0
COSMOS 1217 DEB,1980-085J,2024-01-15T12:49:57.789696,2.02585134,.6321607,66.8776,108.5947,300.1038,12.2002,0,U,27899,999,15832,0,.752E-5,0
COSMOS 1261 DEB,1981-031J,2024-01-20T12:31:59.987712,2.01118213,.7316099,62.4814,150.2034,44.1699,354.7295,0,U,27901,999,16317,.20038E-2,.1334E-4,0
COSMOS 1261 DEB,1981-031K,2024-01-19T21:49:07.126464,2.01298995,.7330343,62.4506,155.8909,41.4403,355.1411,0,U,27902,999,15739,.3716E-2,.98E-6,0
COSMOS 1382 DEB,1982-064G,2024-01-19T16:04:07.398048,2.00128178,.6658364,63.2147,270.8981,33.4366,359.2405,0,U,27905,999,16727,0,-.452E-5,0
TITAN 4B CENTAUR R/B,2003-041B,2024-01-20T07:18:08.143488,1.00849164,.0033337,14.0036,46.8921,86.9817,273.4238,0,U,27938,999,1608,0,.77E-6,0
ARIANE 5 R/B,2003-043B,2024-01-20T01:15:00.732384,2.23517013,.7182642,7.8493,299.8856,177.4528,191.0568,0,U,27946,999,16594,.65782E-3,-.123E-5,0
ARIANE 5 DEB [SPELTRA],2003-043D,2024-01-20T01:34:32.446848,2.24899485,.7154121,7.3492,299.1250,188.1157,213.4920,0,U,27950,999,16694,.11085E-2,-.105E-5,0
INSAT-3E,2003-043E,2024-01-20T18:07:27.202080,1.00804035,.0015276,7.7061,62.5351,230.8161,136.9760,0,U,27951,999,7460,0,.9E-6,0
ARIANE 5 DEB [SYLDA],2003-043F,2024-01-20T04:48:53.016768,2.26038530,.7137972,7.2028,277.9766,229.2185,353.5184,0,U,27952,999,16755,.15995E-2,-.45E-6,0
BLOCK DM-SL R/B,2003-044B,2024-01-20T14:54:18.987840,2.14421412,.6585345,0.5446,33.3236,23.1746,350.0592,0,U,27953,999,15910,0,-.18E-6,0
GALAXY 13 (HORIZONS-1),2003-044A,2024-01-20T13:38:12.523200,1.00267193,.0003324,0.0171,275.7998,266.3814,351.7898,0,U,27954,999,3776,0,.137E-5,0
YAMAL 202,2003-053A,2024-01-20T17:51:42.705792,1.00271675,.0004399,4.1096,81.4825,201.3556,268.1601,0,U,28089,999,7387,0,-.8E-6,0
YAMAL 201,2003-053B,2024-01-20T02:46:28.219296,1.00302186,.0003096,7.5750,64.0869,66.0424,94.2086,0,U,28094,999,7606,0,.4E-7,0
UFO 11 (USA 174),2003-057A,2024-01-20T02:49:36.189408,1.00272565,.0002316,7.8339,37.1324,262.7238,296.7776,0,U,28117,999,7363,0,-.102E-5,0
SL-12 R/B(2),2003-053E,2024-01-20T08:37:31.282176,1.00060419,.0220458,12.9516,19.5997,281.1977,94.4860,0,U,28119,999,7593,0,-.342E-5,0
FREGAT R/B,2003-059B,2024-01-20T00:47:39.774336,2.01475236,.5906186,24.0272,30.8561,142.6401,278.6129,0,U,28133,999,14771,0,-.232E-5,0
BLOCK DM-SL R/B,2004-001B,2024-01-20T07:38:53.164032,2.24713070,.7133695,0.7790,335.8387,54.5523,356.2909,0,U,28138,999,16445,.20049E-2,.111E-5,0
SL-12 R/B(2),2003-060D,2024-01-20T02:42:42.657408,1.00261315,.0016861,12.8193,19.9537,207.5569,343.3234,0,U,28139,999,7321,0,.8E-6,0
USA 149 DEB,2000-024E,2024-01-18T10:50:21.108480,0.99734253,.021595,13.0567,17.5657,269.2264,88.3123,0,U,28156,999,1587,0,-.277E-5,0
USA 176 (DSP 22),2004-004A,2024-01-20T13:00:32.582592,1.00266912,.0001927,10.8603,31.9353,250.8188,118.9530,0,U,28158,999,2412,0,-.22E-5,0
IUS R/B(2),2004-004D,2024-01-19T19:10:21.884160,0.99828761,.0006246,10.9571,32.1268,24.6379,335.4190,0,U,28161,999,1661,0,-.196E-5,0
ABS-4 (MOBISAT-1),2004-007A,2024-01-20T05:45:42.613056,1.00273225,.0006836,3.8005,82.5898,218.6739,325.2466,0,U,28184,999,4352,0,.41E-6,0
EUTELSAT 7A,2004-008A,2024-01-20T13:52:46.098912,1.00270872,.0003139,3.5870,82.3063,222.5557,243.5372,0,U,28187,999,7254,0,.105E-5,0
RADUGA-1 7,2004-010A,2024-01-20T04:16:23.757600,1.00289840,.0003825,12.6487,27.4900,212.5254,320.8553,0,U,28194,999,7260,0,.86E-6,0
SUPERBIRD-A2,2004-011A,2024-01-20T07:49:36.963264,0.99459936,.0027967,12.5493,23.7159,21.5872,122.4328,0,U,28218,999,7170,0,-.205E-5,0
SL-12 R/B(2),2004-015D,2024-01-20T04:17:16.389024,1.00712135,.0015662,12.5567,20.6223,312.0944,231.9007,0,U,28240,999,7255,0,.119E-5,0
AMC-11 (GE-11),2004-017A,2024-01-20T12:22:28.049088,1.00269121,.0003044,0.0365,307.5768,340.5540,265.7516,0,U,28252,999,7206,0,-.44E-6,0
SL-12 R/B(2),2004-010F,2024-01-20T05:55:53.660640,1.00131076,.0026479,12.6799,27.7011,353.5181,192.4450,0,U,28256,999,7186,0,-.13E-6,0
COSMOS 1247 DEB,1981-016L,2024-01-19T19:40:03.483264,2.02462041,.6475281,67.3570,63.2708,5.0644,359.3322,0,U,28270,999,16830,0,.665E-5,0
INTELSAT 10-02,2004-022A,2024-01-20T14:29:48.122880,1.00271140,.0000825,0.0520,254.9920,68.2823,12.6215,0,U,28358,999,7181,0,-.7E-7,0
